ONEWEB-0377             
1 49303U 21090AA  24002.80726389  .00000162  00000+0  36696-3 0  9993
2 49303  87.9196  92.8649 0001862  98.0238 262.1107 13.20775394112190
ONEWEB-0378             
1 49304U 21090AB  24003.16144056  .00000033  00000+0  48713-4 0  9990
2 49304  87.9199  92.8078 0001497 113.4450 246.6840 13.20770395112829
ONEWEB-0379             
1 49305U 21090AC  24003.35988180  .00000112  00000+0  26828-3 0  9996
2 49305  87.8975 108.0234 0001569 111.1926 248.9371 13.14503378111177
ONEWEB-0380             
1 49306U 21090AD  24002.87898966  .00000127  00000+0  28380-3 0  9996
2 49306  87.9200 123.3857 0001595  98.7473 261.3841 13.19725434109483
ONEWEB-0381             
1 49307U 21090AE  24002.87971822 -.00000119  00000+0 -32569-3 0  9997
2 49307  87.9197  92.8570 0001757 102.0430 258.0900 13.20770777111511
ONEWEB-0382             
1 49308U 21090AF  24002.79133289 -.00000080  00000+0 -22796-3 0  9994
2 49308  87.9197  92.8720 0001162 112.2648 247.8608 13.20772478111491
ONEWEB-0383             
1 49309U 21090AG  24003.35353496  .00000288  00000+0  74216-3 0  9994
2 49309  87.8982 108.0167 0001449 114.6309 245.4971 13.14501817111190
ONEWEB-0384             
1 49310U 21090AH  24003.16696057 -.00000446  00000+0 -11289-2 0  9996
2 49310  87.9196  92.8063 0000990 107.5171 252.6071 13.20773056112862
